{"type": "FeatureCollection", "features": [ {"type": "Feature", "properties": {"norad_id": 30013, "name": "FENGYUN 1C DEB", "group": "fengyun-1c-debris", "lat": 12.287112048219129, "lon": -157.78124450639106, "alt_km": 1024.8163024680334, "timestamp": "2025-12-26T08:37:54.853489+00:00", "meta": {"OBJECT_NAME": "FENGYUN 1C DEB", "OBJECT_ID": "1999-025MN", "EPOCH": "2025-12-26T01:11:46.341024", "MEAN_MOTION": 13.8783372, "ECCENTRICITY": 0.0127811, "INCLINATION": 99.5794, "RA_OF_ASC_NODE": 19.7932, "ARG_OF_PERICENTER": 8.6864, "MEAN_ANOMALY": 51.1207, "EPHEMERIS_TYPE": 0, "CLASSIFICATION_TYPE": "U", "NORAD_CAT_ID": 30013, "ELEMENT_SET_NO": 999, "REV_AT_EPOCH": 95866, "BSTAR": 0.00023153, "MEAN_MOTION_DOT": 2.46e-06, "MEAN_MOTION_DDOT": 0}, "tle": {"line1": "1 30013U 99025MN  25360.04984191  .00000246  00000+0  23153-3 0  9992", "line2": "2 30013  99.5794  19.7932 0127811   8.6864  51.1207 13.87833720958667"}}, "geometry": {"type": "Point", "coordinates": [-157.78124450639106, 12.287112048219129]}}, {"type": "Feature", "properties": {"norad_id": 30015, "name": "FENGYUN 1C DEB", "group": "fengyun-1c-debris", "lat": -34.2884699990499, "lon": 10.434737523481616, "alt_km": 809.2613503042785, "timestamp": "2025-12-26T08:37:54.853500+00:00", "meta": {"OBJECT_NAME": "FENGYUN 1C DEB", "OBJECT_ID": "1999-025MQ", "EPOCH": "2025-12-25T23:03:45.489024", "MEAN_MOTION": 14.30835648, "ECCENTRICITY": 0.0038682, "INCLINATION": 99.2286, "RA_OF_ASC_NODE": 3.647, "ARG_OF_PERICENTER": 87.3753, "MEAN_ANOMALY": 345.6475, "EPHEMERIS_TYPE": 0, "CLASSIFICATION_TYPE": "U", "NORAD_CAT_ID": 30015, "ELEMENT_SET_NO": 999, "REV_AT_EPOCH": 98362, "BSTAR": 0.00051913, "MEAN_MOTION_DOT": 1.324e-05, "MEAN_MOTION_DDOT": 0}, "tle": {"line1": "1 30015U 99025MQ  25359.96094316  .00001324  00000+0  51913-3 0  9997", "line2": "2 30015  99.2286   3.6470 0038682  87.3753 345.6475 14.30835648983621"}}, "geometry": {"type": "Point", "coordinates": [10.434737523481616, -34.2884699990499]}}, {"type": "Feature", "properties": {"norad_id": 30016, "name": "FENGYUN 1C DEB", "group": "fengyun-1c-debris", "lat": -79.22185545723354, "lon": 69.20535856738428, "alt_km": 635.8190812106359, "timestamp": "2025-12-26T08:37:54.853510+00:00", "meta": {"OBJECT_NAME": "FENGYUN 1C DEB", "OBJECT_ID": "1999-025MR", "EPOCH": "2025-12-24T18:17:32.555904", "MEAN_MOTION": 14.7881203, "ECCENTRICITY": 0.00460235, "INCLINATION": 98.9044, "RA_OF_ASC_NODE": 11.9946, "ARG_OF_PERICENTER": 3.5031, "MEAN_ANOMALY": 53.4802, "EPHEMERIS_TYPE": 0, "CLASSIFICATION_TYPE": "U", "NORAD_CAT_ID": 30016, "ELEMENT_SET_NO": 999, "REV_AT_EPOCH": 99631, "BSTAR": 0.0018665401, "MEAN_MOTION_DOT": 0.00013934, "MEAN_MOTION_DDOT": 0}, "tle": {"line1": "1 30016U 99025MR  25358.76218236  .00013934  00000+0  18665-2 0  9990", "line2": "2 30016  98.9044  11.9946 0046023   3.5031  53.4802 14.78812030996317"}}, "geometry": {"type": "Point", "coordinates": [69.20535856738428, -79.22185545723354]}}, {"type": "Feature", "properties": {"norad_id": 30017, "name": "FENGYUN 1C DEB", "group": "fengyun-1c-debris", "lat": -75.00353106889904, "lon": 80.85092208113386, "alt_km": 827.7391534779199, "timestamp": "2025-12-26T08:37:54.853520+00:00", "meta": {"OBJECT_NAME": "FENGYUN 1C DEB", "OBJECT_ID": "1999-025MS", "EPOCH": "2025-12-26T02:25:40.725984", "MEAN_MOTION": 14.61225193, "ECCENTRICITY": 0.0218061, "INCLINATION": 98.7528, "RA_OF_ASC_NODE": 45.4689, "ARG_OF_PERICENTER": 134.0414, "MEAN_ANOMALY": 227.8979, "EPHEMERIS_TYPE": 0, "CLASSIFICATION_TYPE": "U", "NORAD_CAT_ID": 30017, "ELEMENT_SET_NO": 999, "REV_AT_EPOCH": 639, "BSTAR": 0.00014545, "MEAN_MOTION_DOT": 9.39e-06, "MEAN_MOTION_DDOT": 0}, "tle": {"line1": "1 30017U 99025MS  25360.10116581  .00000939  00000+0  14545-3 0  9997", "line2": "2 30017  98.7528  45.4689 0218061 134.0414 227.8979 14.61225193  6399"}}, "geometry": {"type": "Point", "coordinates": [80.85092208113386, -75.00353106889904]}}, {"type": "Feature", "properties": {"norad_id": 30018, "name": "FENGYUN 1C DEB", "group": "fengyun-1c-debris", "lat": -4.592590654537555, "lon": -96.64345330453963, "alt_km": 583.7370297532698, "timestamp": "2025-12-26T08:37:54.853552+00:00", "meta": {"OBJECT_NAME": "FENGYUN 1C DEB", "OBJECT_ID": "1999-025MT", "EPOCH": "2025-12-26T04:40:51.069792", "MEAN_MOTION": 14.73329541, "ECCENTRICITY": 0.0117006, "INCLINATION": 98.7544, "RA_OF_ASC_NODE": 83.8883, "ARG_OF_PERICENTER": 153.3881, "MEAN_ANOMALY": 237.7742, "EPHEMERIS_TYPE": 0, "CLASSIFICATION_TYPE": "U", "NORAD_CAT_ID": 30018, "ELEMENT_SET_NO": 999, "REV_AT_EPOCH": 635, "BSTAR": 0.0008086, "MEAN_MOTION_DOT": 5.775e-05, "MEAN_MOTION_DDOT": 0}, "tle": {"line1": "1 30018U 99025MT  25360.19503553  .00005775  00000+0  80860-3 0  9992", "line2": "2 30018  98.7544  83.8883 0117006 153.3881 237.7742 14.73329541  6358"}}, "geometry": {"type": "Point", "coordinates": [-96.64345330453963, -4.592590654537555]}}, {"type": "Feature", "properties": {"norad_id": 30020, "name": "FENGYUN 1C DEB", "group": "fengyun-1c-debris", "lat": 25.26592900017192, "lon": -171.9568353668922, "alt_km": 945.9131073809749, "timestamp": "2025-12-26T08:37:54.853563+00:00", "meta": {"OBJECT_NAME": "FENGYUN 1C DEB", "OBJECT_ID": "1999-025MV", "EPOCH": "2025-12-25T12:05:52.499040", "MEAN_MOTION": 14.04486254, "ECCENTRICITY": 0.0183779, "INCLINATION": 98.8471, "RA_OF_ASC_NODE": 2.9936, "ARG_OF_PERICENTER": 34.9141, "MEAN_ANOMALY": 114.0268, "EPHEMERIS_TYPE": 0, "CLASSIFICATION_TYPE": "U", "NORAD_CAT_ID": 30020, "ELEMENT_SET_NO": 999, "REV_AT_EPOCH": 96837, "BSTAR": 0.00041457, "MEAN_MOTION_DOT": 7.26e-06, "MEAN_MOTION_DDOT": 0}, "tle": {"line1": "1 30020U 99025MV  25359.50407985  .00000726  00000+0  41457-3 0  9990", "line2": "2 30020  98.8471   2.9936 0183779  34.9141 114.0268 14.04486254968373"}}, "geometry": {"type": "Point", "coordinates": [-171.9568353668922, 25.26592900017192]}}, {"type": "Feature", "properties": {"norad_id": 30021, "name": "FENGYUN 1C DEB", "group": "fengyun-1c-debris", "lat": -24.06075294371952, "lon": -4.487740668033137, "alt_km": 879.4611550793616, "timestamp": "2025-12-26T08:37:54.853574+00:00", "meta": {"OBJECT_NAME": "FENGYUN 1C DEB", "OBJECT_ID": "1999-025MW", "EPOCH": "2025-12-25T21:06:18.884736", "MEAN_MOTION": 14.04895327, "ECCENTRICITY": 0.0071871, "INCLINATION": 98.8363, "RA_OF_ASC_NODE": 351.0619, "ARG_OF_PERICENTER": 249.8273, "MEAN_ANOMALY": 177.3745, "EPHEMERIS_TYPE": 0, "CLASSIFICATION_TYPE": "U", "NORAD_CAT_ID": 30021, "ELEMENT_SET_NO": 999, "REV_AT_EPOCH": 97116, "BSTAR": 8.2757e-07, "MEAN_MOTION_DOT": -4.2e-07, "MEAN_MOTION_DDOT": 0}, "tle": {"line1": "1 30021U 99025MW  25359.87938524 -.00000042  00000+0  82757-6 0  9992", "line2": "2 30021  98.8363 351.0619 0071871 249.8273 177.3745 14.04895327971160"}}, "geometry": {"type": "Point", "coordinates": [-4.487740668033137, -24.06075294371952]}}, {"type": "Feature", "properties": {"norad_id": 30022, "name": "FENGYUN 1C DEB", "group": "fengyun-1c-debris", "lat": 49.84968214129949, "lon": -162.02968097411687, "alt_km": 858.1756304238133, "timestamp": "2025-12-26T08:37:54.853584+00:00", "meta": {"OBJECT_NAME": "FENGYUN 1C DEB", "OBJECT_ID": "1999-025MX", "EPOCH": "2025-12-26T03:56:03.100992", "MEAN_MOTION": 14.23137105, "ECCENTRICITY": 0.0066748, "INCLINATION": 99.0714, "RA_OF_ASC_NODE": 208.6858, "ARG_OF_PERICENTER": 230.1571, "MEAN_ANOMALY": 258.3841, "EPHEMERIS_TYPE": 0, "CLASSIFICATION_TYPE": "U", "NORAD_CAT_ID": 30022, "ELEMENT_SET_NO": 999, "REV_AT_EPOCH": 98383, "BSTAR": 6.8131e-05, "MEAN_MOTION_DOT": 1.1e-06, "MEAN_MOTION_DDOT": 0}, "tle": {"line1": "1 30022U 99025MX  25360.16392478  .00000110  00000+0  68131-4 0  9992", "line2": "2 30022  99.0714 208.6858 0066748 230.1571 258.3841 14.23137105983835"}}, "geometry": {"type": "Point", "coordinates": [-162.02968097411687, 49.84968214129949]}}, {"type": "Feature", "properties": {"norad_id": 30023, "name": "FENGYUN 1C DEB", "group": "fengyun-1c-debris", "lat": 29.45155710241409, "lon": 19.71652782597084, "alt_km": 870.3268116987119, "timestamp": "2025-12-26T08:37:54.853594+00:00", "meta": {"OBJECT_NAME": "FENGYUN 1C DEB", "OBJECT_ID": "1999-025MY", "EPOCH": "2025-12-26T03:24:41.289984", "MEAN_MOTION": 14.1188182, "ECCENTRICITY": 0.0046946, "INCLINATION": 99.2935, "RA_OF_ASC_NODE": 194.1862, "ARG_OF_PERICENTER": 26.5449, "MEAN_ANOMALY": 98.0409, "EPHEMERIS_TYPE": 0, "CLASSIFICATION_TYPE": "U", "NORAD_CAT_ID": 30023, "ELEMENT_SET_NO": 999, "REV_AT_EPOCH": 97385, "BSTAR": 0.00038845, "MEAN_MOTION_DOT": 6.69e-06, "MEAN_MOTION_DDOT": 0}, "tle": {"line1": "1 30023U 99025MY  25360.14214456  .00000669  00000+0  38845-3 0  9997", "line2": "2 30023  99.2935 194.1862 0046946  26.5449  98.0409 14.11881820973853"}}, "geometry": {"type": "Point", "coordinates": [19.71652782597084, 29.45155710241409]}}, {"type": "Feature", "properties": {"norad_id": 30028, "name": "FENGYUN 1C DEB", "group": "fengyun-1c-debris", "lat": 40.408290722132605, "lon": -14.74785733654987, "alt_km": 805.1612804063197, "timestamp": "2025-12-26T08:37:54.853604+00:00", "meta": {"OBJECT_NAME": "FENGYUN 1C DEB", "OBJECT_ID": "1999-025ND", "EPOCH": "2025-12-25T13:13:15.013344", "MEAN_MOTION": 14.5553047, "ECCENTRICITY": 0.0174818, "INCLINATION": 98.1466, "RA_OF_ASC_NODE": 351.4672, "ARG_OF_PERICENTER": 188.4468, "MEAN_ANOMALY": 298.2034, "EPHEMERIS_TYPE": 0, "CLASSIFICATION_TYPE": "U", "NORAD_CAT_ID": 30028, "ELEMENT_SET_NO": 999, "REV_AT_EPOCH": 99908, "BSTAR": 0.00028587, "MEAN_MOTION_DOT": 1.476e-05, "MEAN_MOTION_DDOT": 0}, "tle": {"line1": "1 30028U 99025ND  25359.55086821  .00001476  00000+0  28587-3 0  9997", "line2": "2 30028  98.1466 351.4672 0174818 188.4468 298.2034 14.55530470999082"}}, "geometry": {"type": "Point", "coordinates": [-14.74785733654987, 40.408290722132605]}}]}